{
  "type": "FeatureCollection",
  "features": [
    {
      "type": "Feature",
      "properties": {
        "norad_id": 47068,
        "name": "COSMOS 2251 DEB",
        "group": "cosmos-2251-debris",
        "lat": 71.60992735215878,
        "lon": -105.0363455854129,
        "alt_km": 720.1233855949495,
        "timestamp": "2025-12-16T23:36:36.596803+00:00",
        "meta_object_name": "COSMOS 2251 DEB",
        "meta_object_id": "1993-036BXY",
        "meta_epoch": "2025-12-16T06:43:01.119648",
        "meta_mean_motion": 14.53175841,
        "meta_eccentricity": 0.00183072,
        "meta_inclination": 74.0235,
        "meta_ra_of_asc_node": 196.7826,
        "meta_arg_of_pericenter": 283.5984,
        "meta_mean_anomaly": 76.3139,
        "meta_ephemeris_type": 0,
        "meta_classification_type": "U",
        "meta_norad_cat_id": 47068,
        "meta_element_set_no": 999,
        "meta_rev_at_epoch": 61808,
        "meta_bstar": 0.00057782792,
        "meta_mean_motion_dot": 2.371e-05,
        "meta_mean_motion_ddot": 0,
        "tle_line1": "1 47068U 93036BXY 25350.27987407  .00002371  00000+0  57783-3 0  9990",
        "tle_line2": "2 47068  74.0235 196.7826 0018307 283.5984  76.3139 14.53175841618086"
      },
      "geometry": {
        "type": "Point",
        "coordinates": [
          -105.0363455854129,
          71.60992735215878
        ]
      }
    },
    {
      "type": "Feature",
      "properties": {
        "norad_id": 47073,
        "name": "COSMOS 2251 DEB",
        "group": "cosmos-2251-debris",
        "lat": -43.15726085954015,
        "lon": 29.978363343153298,
        "alt_km": 767.274372622187,
        "timestamp": "2025-12-16T23:36:36.596814+00:00",
        "meta_object_name": "COSMOS 2251 DEB",
        "meta_object_id": "1993-036BYD",
        "meta_epoch": "2025-12-15T07:13:18.345792",
        "meta_mean_motion": 14.04726954,
        "meta_eccentricity": 0.01614948,
        "meta_inclination": 74.0808,
        "meta_ra_of_asc_node": 197.3835,
        "meta_arg_of_pericenter": 235.0635,
        "meta_mean_anomaly": 123.5242,
        "meta_ephemeris_type": 0,
        "meta_classification_type": "U",
        "meta_norad_cat_id": 47073,
        "meta_element_set_no": 999,
        "meta_rev_at_epoch": 60397,
        "meta_bstar": 0.00047491463,
        "meta_mean_motion_dot": 8.3e-06,
        "meta_mean_motion_ddot": 0,
        "tle_line1": "1 47073U 93036BYD 25349.30090678  .00000830  00000+0  47491-3 0  9996",
        "tle_line2": "2 47073  74.0808 197.3835 0161494 235.0635 123.5242 14.04726954603971"
      },
      "geometry": {
        "type": "Point",
        "coordinates": [
          29.978363343153298,
          -43.15726085954015
        ]
      }
    },
    {
      "type": "Feature",
      "properties": {
        "norad_id": 47074,
        "name": "COSMOS 2251 DEB",
        "group": "cosmos-2251-debris",
        "lat": 47.02111636926955,
        "lon": 103.12925986544016,
        "alt_km": 866.5214627321257,
        "timestamp": "2025-12-16T23:36:36.596824+00:00",
        "meta_object_name": "COSMOS 2251 DEB",
        "meta_object_id": "1993-036BYE",
        "meta_epoch": "2025-12-14T04:11:13.221312",
        "meta_mean_motion": 14.35642167,
        "meta_eccentricity": 0.01443955,
        "meta_inclination": 74.0928,
        "meta_ra_of_asc_node": 306.0867,
        "meta_arg_of_pericenter": 333.9611,
        "meta_mean_anomaly": 42.2812,
        "meta_ephemeris_type": 0,
        "meta_classification_type": "U",
        "meta_norad_cat_id": 47074,
        "meta_element_set_no": 999,
        "meta_rev_at_epoch": 2703,
        "meta_bstar": 0.001977061,
        "meta_mean_motion_dot": 6.399e-05,
        "meta_mean_motion_ddot": 0,
        "tle_line1": "1 47074U 93036BYE 25348.17445858  .00006399  00000+0  19771-2 0  9990",
        "tle_line2": "2 47074  74.0928 306.0867 0144395 333.9611  42.2812 14.35642167 27036"
      },
      "geometry": {
        "type": "Point",
        "coordinates": [
          103.12925986544016,
          47.02111636926955
        ]
      }
    },
    {
      "type": "Feature",
      "properties": {
        "norad_id": 47116,
        "name": "COSMOS 2251 DEB",
        "group": "cosmos-2251-debris",
        "lat": -32.368515463172436,
        "lon": 62.57097385954977,
        "alt_km": 583.1410397624159,
        "timestamp": "2025-12-16T23:36:36.596834+00:00",
        "meta_object_name": "COSMOS 2251 DEB",
        "meta_object_id": "1993-036BYJ",
        "meta_epoch": "2025-12-15T10:35:15.431712",
        "meta_mean_motion": 14.98340246,
        "meta_eccentricity": 0.00212808,
        "meta_inclination": 74.0234,
        "meta_ra_of_asc_node": 235.2363,
        "meta_arg_of_pericenter": 329.1106,
        "meta_mean_anomaly": 207.4112,
        "meta_ephemeris_type": 0,
        "meta_classification_type": "U",
        "meta_norad_cat_id": 47116,
        "meta_element_set_no": 999,
        "meta_rev_at_epoch": 59551,
        "meta_bstar": 0.0012172499,
        "meta_mean_motion_dot": 0.00014561,
        "meta_mean_motion_ddot": 0,
        "tle_line1": "1 47116U 93036BYJ 25349.44115083  .00014561  00000+0  12172-2 0  9990",
        "tle_line2": "2 47116  74.0234 235.2363 0021280 329.1106 207.4112 14.98340246595513"
      },
      "geometry": {
        "type": "Point",
        "coordinates": [
          62.57097385954977,
          -32.368515463172436
        ]
      }
    },
    {
      "type": "Feature",
      "properties": {
        "norad_id": 53093,
        "name": "COSMOS 2251 DEB",
        "group": "cosmos-2251-debris",
        "lat": -69.48461813066099,
        "lon": 163.49145962048004,
        "alt_km": 764.5491711351033,
        "timestamp": "2025-12-16T23:36:36.596844+00:00",
        "meta_object_name": "COSMOS 2251 DEB",
        "meta_object_id": "1993-036BYP",
        "meta_epoch": "2025-12-16T05:46:12.592128",
        "meta_mean_motion": 14.41900976,
        "meta_eccentricity": 0.00194605,
        "meta_inclination": 74.0368,
        "meta_ra_of_asc_node": 294.9662,
        "meta_arg_of_pericenter": 11.5416,
        "meta_mean_anomaly": 348.6182,
        "meta_ephemeris_type": 0,
        "meta_classification_type": "U",
        "meta_norad_cat_id": 53093,
        "meta_element_set_no": 999,
        "meta_rev_at_epoch": 17776,
        "meta_bstar": 0.00064503314,
        "meta_mean_motion_dot": 2.091e-05,
        "meta_mean_motion_ddot": 0,
        "tle_line1": "1 53093U 93036BYP 25350.24042352  .00002091  00000+0  64503-3 0  9990",
        "tle_line2": "2 53093  74.0368 294.9662 0019460  11.5416 348.6182 14.41900976177767"
      },
      "geometry": {
        "type": "Point",
        "coordinates": [
          163.49145962048004,
          -69.48461813066099
        ]
      }
    }
  ]
}